YAMAL 401               
1 40345U 14082A   26186.38062181  .00000000  00000+0  00000+0 0  9991
2 40345   0.0106  57.5366 0000336 355.1066  97.7063  1.00268012 42104
ASTRA 2G                
1 40364U 14089A   26186.58231850  .00000163  00000+0  00000+0 0  9992
2 40364   0.0455 358.6160 0004723  76.1650  86.6251  1.00271223 42151
FENGYUN 2G              
1 40367U 14090A   26186.59640071 -.00000289  00000+0  00000+0 0  9997
2 40367   5.6825  72.5975 0003703 150.4392  14.7589  1.00265165 42185
MUOS-3                  
1 40374U 15002A   26186.43098368 -.00000117  00000+0  00000+0 0  9998
2 40374   4.5553  43.5973 0052917 177.5661 201.9185  1.00270332 41773
INMARSAT 5-F2           
1 40384U 15005A   26183.42909796 -.00000275  00000+0  00000+0 0  9999
2 40384   0.0184  20.4389 0000621  74.6010 284.8989  1.00275452 41141
ABS-3A                  
1 40424U 15010A   26184.19211509  .00000000  00000+0  00000+0 0  9998
2 40424   0.0433  62.9832 0001610 347.8334 296.5830  1.00269239 41534
EUTELSAT 115 WEST B     
1 40425U 15010B   26183.63115325 -.00000015  00000+0  00000+0 0  9993
2 40425   0.0049 195.2860 0000186  57.4934 140.1926  1.00274403 41535
EXPRESS-AM7             
1 40505U 15012A   26186.58465851  .00000164  00000+0  00000+0 0  9997
2 40505   0.0171  68.5464 0003054  44.5538  60.9468  1.00273128 41191
BEIDOU-3S IGSO-1S       
1 40549U 15019A   26183.80025122 -.00000190  00000+0  00000+0 0  9997
2 40549  49.1798 295.2769 0076860 219.1125 144.2493  1.00680073 41232
THOR 7                  
1 40613U 15022A   26186.57659847  .00000005  00000+0  00000+0 0  9991
2 40613   0.0370 225.9296 0002574 238.3101  26.2588  1.00270691 41009
TURKMENALEM52E/MONACOSAT
1 40617U 15023A   26186.58699852  .00000117  00000+0  00000+0 0  9991
2 40617   0.0419  83.0725 0002761  16.1174  87.7259  1.00272693 41031
DIRECTV 15              
1 40663U 15026A   26185.98605395 -.00000090  00000+0  00000+0 0  9998
2 40663   0.0181  69.4379 0000300 276.8843 188.7729  1.00274623 40641
SKY MEXICO-1            
1 40664U 15026B   26186.56108507 -.00000221  00000+0  00000+0 0  9993
2 40664   0.0173  67.2170 0002464  55.9345 283.6050  1.00272193 40635
METEOSAT-11 (MSG-4)     
1 40732U 15034A   26186.57850515  .00000074  00000+0  00000+0 0  9997
2 40732   3.2464  70.9958 0002249 350.1849  79.9413  1.00268848  7403
STAR ONE C4             
1 40733U 15034B   26186.04637368 -.00000252  00000+0  00000+0 0  9998
2 40733   0.0209  13.5351 0001864  61.8943 154.3112  1.00272747 40199
WGS F7 (USA 263)        
1 40746U 15036A   26185.82717992  .00000031  00000+0  00000+0 0  9995
2 40746   0.0104  20.8157 0000153 174.6388 200.1599  1.00273210 40047
INTELSAT 34 (IS-34)     
1 40874U 15039A   26186.20926027 -.00000272  00000+0  00000+0 0  9992
2 40874   0.0093 349.4006 0000293  41.4792 272.1706  1.00271717 39816
EUTELSAT 8 WEST B       
1 40875U 15039B   26186.57512514 -.00000052  00000+0  00000+0 0  9991
2 40875   0.0625 352.8531 0003786 106.4242  23.3318  1.00271448 39840
GSAT-6                  
1 40880U 15041A   26186.59302069 -.00000146  00000+0  00000+0 0  9998
2 40880   1.9658  82.3656 0003121  13.3213 123.8631  1.00269489 39781
INMARSAT 5-F3           
1 40882U 15042A   26186.04199765  .00000063  00000+0  00000+0 0  9995
2 40882   0.0188  37.6934 0000377  96.2100 343.8491  1.00270096 39759
MUOS-4                  
1 40887U 15044A   26186.59154736 -.00000081  00000+0  00000+0 0  9992
2 40887   4.3621  42.3353 0057070   3.3455 165.8528  1.00271825 39748
TJS-1                   
1 40892U 15046A   26186.60739936 -.00000143  00000+0  00000+0 0  9992
2 40892   0.3678  84.8606 0005640  11.8961 200.4847  1.00269150 39755
BEIDOU-3S IGSO-2S       
1 40938U 15053A   26185.85304073 -.00000105  00000+0  00000+0 0  9995
2 40938  49.1939 258.5724 0065737 193.1388 232.3570  1.00255661 39533
SKY MUSTER 1 (NBN1A)    
1 40940U 15054A   26186.24800045 -.00000265  00000+0  00000+0 0  9990
2 40940   0.0176 341.1681 0001785 120.0128  51.5935  1.00271957 39442
ARSAT 2                 
1 40941U 15054B   26186.56065174 -.00000211  00000+0  00000+0 0  9993
2 40941   0.0246 306.5849 0002108 149.6781 308.1282  1.00271978 39487
MORELOS 3               
1 40946U 15056A   26186.56201060 -.00000031  00000+0  00000+0 0  9996
2 40946   3.2021  15.5490 0000315  45.3853 311.8392  1.00271208 39464
APSTAR-9                
1 40982U 15059A   26186.62544701 -.00000252  00000+0  00000+0 0  9993
2 40982   0.0161 349.6230 0003091 192.6343 108.5355  1.00270483 39308
TURKSAT 4B              
1 40984U 15060A   26186.58665185  .00000129  00000+0  00000+0 0  9994
2 40984   0.0128 310.0946 0002589 159.9848  74.6861  1.00269171 39280
ZHONGXING-2C            
1 41021U 15063A   26186.64432189 -.00000310  00000+0  00000+0 0  9996
2 41021   0.3187  89.0015 0008029  96.0822  73.9607  1.00270136 39169
GSAT-15                 
1 41028U 15065A   26186.45267740 -.00000244  00000+0  00000+0 0  9999
2 41028   0.0374 242.1269 0004101 203.6299  94.1478  1.00271798 38980
BADR-7 (ARABSAT-6B)     
1 41029U 15065B   26186.58188516  .00000158  00000+0  00000+0 0  9990
2 41029   0.0421 214.1172 0004378 346.4630 318.4621  1.00270068 38955
