OBJECT_NAME,OBJECT_ID,EPOCH,MEAN_MOTION,ECCENTRICITY,INCLINATION,RA_OF_ASC_NODE,ARG_OF_PERICENTER,MEAN_ANOMALY,EPHEMERIS_TYPE,CLASSIFICATION_TYPE,NORAD_CAT_ID,ELEMENT_SET_NO,REV_AT_EPOCH,BSTAR,MEAN_MOTION_DOT,MEAN_MOTION_DDOT
YAMAL 401,2014-082A,2026-07-05T09:08:05.724384,1.00268012,.0000336,0.0106,57.5366,355.1066,97.7063,0,U,40345,999,4210,0,0,0
ASTRA 2G,2014-089A,2026-07-05T13:58:32.318400,1.00271223,.00047239,0.0455,358.6160,76.1650,86.6251,0,U,40364,999,4215,0,.163E-5,0
FENGYUN 2G,2014-090A,2026-07-05T14:18:49.021344,1.00265165,.0003703,5.6825,72.5975,150.4392,14.7589,0,U,40367,999,4218,0,-.289E-5,0
MUOS-3,2015-002A,2026-07-05T10:20:36.989088,1.00270332,.0052917,4.5553,43.5973,177.5661,201.9185,0,U,40374,999,4177,0,-.117E-5,0
INMARSAT 5-F2,2015-005A,2026-07-02T10:17:54.063744,1.00275452,.0000621,0.0184,20.4389,74.6010,284.8989,0,U,40384,999,4114,0,-.275E-5,0
ABS-3A,2015-010A,2026-07-03T04:36:38.743776,1.00269239,.000161,0.0433,62.9832,347.8334,296.5830,0,U,40424,999,4153,0,0,0
EUTELSAT 115 WEST B,2015-010B,2026-07-02T15:08:51.640800,1.00274403,.00001861,0.0049,195.2860,57.4934,140.1926,0,U,40425,999,4153,0,-.15E-6,0
EXPRESS-AM7,2015-012A,2026-07-05T14:01:54.495264,1.00273128,.00030543,0.0171,68.5464,44.5538,60.9468,0,U,40505,999,4119,0,.164E-5,0
BEIDOU-3S IGSO-1S,2015-019A,2026-07-02T19:12:21.705408,1.00680073,.00768606,49.1798,295.2769,219.1125,144.2493,0,U,40549,999,4123,0,-.19E-5,0
THOR 7,2015-022A,2026-07-05T13:50:18.107808,1.00270691,.00025748,0.0370,225.9296,238.3101,26.2588,0,U,40613,999,4100,0,.5E-7,0
TURKMENALEM52E/MONACOSAT,2015-023A,2026-07-05T14:05:16.672128,1.00272693,.00027613,0.0419,83.0725,16.1174,87.7259,0,U,40617,999,4103,0,.117E-5,0
DIRECTV 15,2015-026A,2026-07-04T23:39:55.061280,1.00274623,.00003,0.0181,69.4379,276.8843,188.7729,0,U,40663,999,4064,0,-.9E-6,0
SKY MEXICO-1,2015-026B,2026-07-05T13:27:57.750048,1.00272193,.00024641,0.0173,67.2170,55.9345,283.6050,0,U,40664,999,4063,0,-.221E-5,0
METEOSAT-11 (MSG-4),2015-034A,2026-07-05T13:53:02.844960,1.00268848,.00022498,3.2464,70.9958,350.1849,79.9413,0,U,40732,999,740,0,.74E-6,0
STAR ONE C4,2015-034B,2026-07-05T01:06:46.685088,1.00272747,.0001864,0.0209,13.5351,61.8943,154.3112,0,U,40733,999,4019,0,-.252E-5,0
WGS F7 (USA 263),2015-036A,2026-07-04T19:51:08.345088,1.00273210,.0000153,0.0104,20.8157,174.6388,200.1599,0,U,40746,999,4004,0,.31E-6,0
INTELSAT 34 (IS-34),2015-039A,2026-07-05T05:01:20.087328,1.00271717,.0000293,0.0093,349.4006,41.4792,272.1706,0,U,40874,999,3981,0,-.272E-5,0
EUTELSAT 8 WEST B,2015-039B,2026-07-05T13:48:10.812096,1.00271448,.00037869,0.0625,352.8531,106.4242,23.3318,0,U,40875,999,3984,0,-.52E-6,0
GSAT-6,2015-041A,2026-07-05T14:13:56.987616,1.00269489,.0003121,1.9658,82.3656,13.3213,123.8631,0,U,40880,999,3978,0,-.146E-5,0
INMARSAT 5-F3,2015-042A,2026-07-05T01:00:28.596096,1.00270096,.0000377,0.0188,37.6934,96.2100,343.8491,0,U,40882,999,3975,0,.63E-6,0
MUOS-4,2015-044A,2026-07-05T14:11:49.691904,1.00271825,.00570703,4.3621,42.3353,3.3455,165.8528,0,U,40887,999,3974,0,-.81E-6,0
TJS-1,2015-046A,2026-07-05T14:34:39.304704,1.00269150,.00056406,0.3678,84.8606,11.8961,200.4847,0,U,40892,999,3975,0,-.143E-5,0
BEIDOU-3S IGSO-2S,2015-053A,2026-07-04T20:28:22.719072,1.00255661,.00657379,49.1939,258.5724,193.1388,232.3570,0,U,40938,999,3953,0,-.105E-5,0
SKY MUSTER 1 (NBN1A),2015-054A,2026-07-05T05:57:07.238016,1.00271957,.0001786,0.0176,341.1681,120.0128,51.5935,0,U,40940,999,3944,0,-.265E-5,0
ARSAT 2,2015-054B,2026-07-05T13:27:20.310336,1.00271978,.0002108,0.0246,306.5849,149.6781,308.1282,0,U,40941,999,3948,0,-.211E-5,0
MORELOS 3,2015-056A,2026-07-05T13:29:17.715840,1.00271208,.00003154,3.2021,15.5490,45.3853,311.8392,0,U,40946,999,3946,0,-.31E-6,0
APSTAR-9,2015-059A,2026-07-05T15:00:38.621664,1.00270483,.00030917,0.0161,349.6230,192.6343,108.5355,0,U,40982,999,3930,0,-.252E-5,0
TURKSAT 4B,2015-060A,2026-07-05T14:04:46.719840,1.00269171,.00025893,0.0128,310.0946,159.9848,74.6861,0,U,40984,999,3928,0,.129E-5,0
ZHONGXING-2C,2015-063A,2026-07-05T15:27:49.411296,1.00270136,.00080292,0.3187,89.0015,96.0822,73.9607,0,U,41021,999,3916,0,-.31E-5,0
GSAT-15,2015-065A,2026-07-05T10:51:51.327360,1.00271798,.0004101,0.0374,242.1269,203.6299,94.1478,0,U,41028,999,3898,0,-.244E-5,0
BADR-7 (ARABSAT-6B),2015-065B,2026-07-05T13:57:54.877824,1.00270068,.00043786,0.0421,214.1172,346.4630,318.4621,0,U,41029,999,3895,0,.158E-5,0
